CCSDS_OMM_VERS = 2.0
CREATION_DATE  = 
ORIGINATOR     = 

OBJECT_NAME    = STARLINK-36102
OBJECT_ID      = 2025-281B
CENTER_NAME    = EARTH
REF_FRAME      = TEME
TIME_SYSTEM    = UTC
MEAN_ELEMENT_THEORY = SGP/SGP4

EPOCH          = 2025-12-19T06:00:02.000160
MEAN_MOTION    = 15.75059321
ECCENTRICITY   = .00015709
INCLINATION    = 43.0007
RA_OF_ASC_NODE = 82.4518
ARG_OF_PERICENTER = 264.6835
MEAN_ANOMALY   = 306.3518

EPHEMERIS_TYPE = 0
CLASSIFICATION_TYPE = U
NORAD_CAT_ID   = 66849
ELEMENT_SET_NO = 999
REV_AT_EPOCH   = 244
BSTAR          = -.15709181E-3
MEAN_MOTION_DOT = -.24559E-3
MEAN_MOTION_DDOT = 0

CCSDS_OMM_VERS = 2.0
CREATION_DATE  = 
ORIGINATOR     = 

OBJECT_NAME    = STARLINK-36105
OBJECT_ID      = 2025-281C
CENTER_NAME    = EARTH
REF_FRAME      = TEME
TIME_SYSTEM    = UTC
MEAN_ELEMENT_THEORY = SGP/SGP4

EPOCH          = 2025-12-19T06:00:02.000160
MEAN_MOTION    = 15.75048500
ECCENTRICITY   = .00014766
INCLINATION    = 43.0011
RA_OF_ASC_NODE = 82.4467
ARG_OF_PERICENTER = 263.4900
MEAN_ANOMALY   = 309.4486

EPHEMERIS_TYPE = 0
CLASSIFICATION_TYPE = U
NORAD_CAT_ID   = 66850
ELEMENT_SET_NO = 999
REV_AT_EPOCH   = 244
BSTAR          = .91785852E-4
MEAN_MOTION_DOT = .1365E-3
MEAN_MOTION_DDOT = 0

CCSDS_OMM_VERS = 2.0
CREATION_DATE  = 
ORIGINATOR     = 

OBJECT_NAME    = STARLINK-36094
OBJECT_ID      = 2025-281D
CENTER_NAME    = EARTH
REF_FRAME      = TEME
TIME_SYSTEM    = UTC
MEAN_ELEMENT_THEORY = SGP/SGP4

EPOCH          = 2025-12-19T06:00:02.000160
MEAN_MOTION    = 15.75024596
ECCENTRICITY   = .00014301
INCLINATION    = 43.0011
RA_OF_ASC_NODE = 82.4416
ARG_OF_PERICENTER = 260.3753
MEAN_ANOMALY   = 314.5047

EPHEMERIS_TYPE = 0
CLASSIFICATION_TYPE = U
NORAD_CAT_ID   = 66851
ELEMENT_SET_NO = 999
REV_AT_EPOCH   = 244
BSTAR          = .22318746E-3
MEAN_MOTION_DOT = .33922E-3
MEAN_MOTION_DDOT = 0

CCSDS_OMM_VERS = 2.0
CREATION_DATE  = 
ORIGINATOR     = 

OBJECT_NAME    = STARLINK-35992
OBJECT_ID      = 2025-281E
CENTER_NAME    = EARTH
REF_FRAME      = TEME
TIME_SYSTEM    = UTC
MEAN_ELEMENT_THEORY = SGP/SGP4

EPOCH          = 2025-12-19T06:00:02.000160
MEAN_MOTION    = 15.75065857
ECCENTRICITY   = .00015522
INCLINATION    = 43.0012
RA_OF_ASC_NODE = 82.4371
ARG_OF_PERICENTER = 268.3660
MEAN_ANOMALY   = 308.4074

EPHEMERIS_TYPE = 0
CLASSIFICATION_TYPE = U
NORAD_CAT_ID   = 66852
ELEMENT_SET_NO = 999
REV_AT_EPOCH   = 244
BSTAR          = -.13885468E-3
MEAN_MOTION_DOT = -.21777E-3
MEAN_MOTION_DDOT = 0

CCSDS_OMM_VERS = 2.0
CREATION_DATE  = 
ORIGINATOR     = 

OBJECT_NAME    = STARLINK-35986
OBJECT_ID      = 2025-281F
CENTER_NAME    = EARTH
REF_FRAME      = TEME
TIME_SYSTEM    = UTC
MEAN_ELEMENT_THEORY = SGP/SGP4

EPOCH          = 2025-12-19T06:00:02.000160
MEAN_MOTION    = 15.75057699
ECCENTRICITY   = .0001436
INCLINATION    = 43.0007
RA_OF_ASC_NODE = 82.4328
ARG_OF_PERICENTER = 271.2311
MEAN_ANOMALY   = 307.4837

EPHEMERIS_TYPE = 0
CLASSIFICATION_TYPE = U
NORAD_CAT_ID   = 66853
ELEMENT_SET_NO = 999
REV_AT_EPOCH   = 244
BSTAR          = -.23962812E-3
MEAN_MOTION_DOT = -.37154E-3
MEAN_MOTION_DDOT = 0

CCSDS_OMM_VERS = 2.0
CREATION_DATE  = 
ORIGINATOR     = 

OBJECT_NAME    = STARLINK-36087
OBJECT_ID      = 2025-281G
CENTER_NAME    = EARTH
REF_FRAME      = TEME
TIME_SYSTEM    = UTC
MEAN_ELEMENT_THEORY = SGP/SGP4

EPOCH          = 2025-12-19T06:00:02.000160
MEAN_MOTION    = 15.75207726
ECCENTRICITY   = .00016369
INCLINATION    = 43.0008
RA_OF_ASC_NODE = 82.4278
ARG_OF_PERICENTER = 265.8950
MEAN_ANOMALY   = 314.6659

EPHEMERIS_TYPE = 0
CLASSIFICATION_TYPE = U
NORAD_CAT_ID   = 66854
ELEMENT_SET_NO = 999
REV_AT_EPOCH   = 244
BSTAR          = -.15333695E-2
MEAN_MOTION_DOT = -.231385E-2
MEAN_MOTION_DDOT = 0

CCSDS_OMM_VERS = 2.0
CREATION_DATE  = 
ORIGINATOR     = 

OBJECT_NAME    = STARLINK-36090
OBJECT_ID      = 2025-281H
CENTER_NAME    = EARTH
REF_FRAME      = TEME
TIME_SYSTEM    = UTC
MEAN_ELEMENT_THEORY = SGP/SGP4

EPOCH          = 2025-12-19T06:00:02.000160
MEAN_MOTION    = 15.75049096
ECCENTRICITY   = .00010203
INCLINATION    = 43.0009
RA_OF_ASC_NODE = 82.4224
ARG_OF_PERICENTER = 260.9719
MEAN_ANOMALY   = 321.5625

EPHEMERIS_TYPE = 0
CLASSIFICATION_TYPE = U
NORAD_CAT_ID   = 66855
ELEMENT_SET_NO = 999
REV_AT_EPOCH   = 232
BSTAR          = -.6578688E-4
MEAN_MOTION_DOT = -.10573E-3
MEAN_MOTION_DDOT = 0

CCSDS_OMM_VERS = 2.0
CREATION_DATE  = 
ORIGINATOR     = 

OBJECT_NAME    = STARLINK-36072
OBJECT_ID      = 2025-281J
CENTER_NAME    = EARTH
REF_FRAME      = TEME
TIME_SYSTEM    = UTC
MEAN_ELEMENT_THEORY = SGP/SGP4

EPOCH          = 2025-12-19T06:00:02.000160
MEAN_MOTION    = 15.75056751
ECCENTRICITY   = .00017116
INCLINATION    = 43.0007
RA_OF_ASC_NODE = 82.4177
ARG_OF_PERICENTER = 263.8601
MEAN_ANOMALY   = 320.5998

EPHEMERIS_TYPE = 0
CLASSIFICATION_TYPE = U
NORAD_CAT_ID   = 66856
ELEMENT_SET_NO = 999
REV_AT_EPOCH   = 244
BSTAR          = -.19131E-3
MEAN_MOTION_DOT = -.29784E-3
MEAN_MOTION_DDOT = 0

CCSDS_OMM_VERS = 2.0
CREATION_DATE  = 
ORIGINATOR     = 

OBJECT_NAME    = STARLINK-36083
OBJECT_ID      = 2025-281K
CENTER_NAME    = EARTH
REF_FRAME      = TEME
TIME_SYSTEM    = UTC
MEAN_ELEMENT_THEORY = SGP/SGP4

EPOCH          = 2025-12-19T06:00:02.000160
MEAN_MOTION    = 15.75074171
ECCENTRICITY   = .00016316
INCLINATION    = 43.0006
RA_OF_ASC_NODE = 82.4130
ARG_OF_PERICENTER = 251.0954
MEAN_ANOMALY   = 335.2690

EPHEMERIS_TYPE = 0
CLASSIFICATION_TYPE = U
NORAD_CAT_ID   = 66857
ELEMENT_SET_NO = 999
REV_AT_EPOCH   = 244
BSTAR          = -.2998069E-3
MEAN_MOTION_DOT = -.46349E-3
MEAN_MOTION_DDOT = 0

CCSDS_OMM_VERS = 2.0
CREATION_DATE  = 
ORIGINATOR     = 

OBJECT_NAME    = STARLINK-35118
OBJECT_ID      = 2025-281L
CENTER_NAME    = EARTH
REF_FRAME      = TEME
TIME_SYSTEM    = UTC
MEAN_ELEMENT_THEORY = SGP/SGP4

EPOCH          = 2025-12-19T06:00:02.000160
MEAN_MOTION    = 15.75061706
ECCENTRICITY   = .00018763
INCLINATION    = 43.0008
RA_OF_ASC_NODE = 82.4080
ARG_OF_PERICENTER = 251.5649
MEAN_ANOMALY   = 336.7264

EPHEMERIS_TYPE = 0
CLASSIFICATION_TYPE = U
NORAD_CAT_ID   = 66858
ELEMENT_SET_NO = 999
REV_AT_EPOCH   = 223
BSTAR          = -.22249157E-3
MEAN_MOTION_DOT = -.3455E-3
MEAN_MOTION_DDOT = 0

CCSDS_OMM_VERS = 2.0
CREATION_DATE  = 
ORIGINATOR     = 

OBJECT_NAME    = STARLINK-35646
OBJECT_ID      = 2025-281M
CENTER_NAME    = EARTH
REF_FRAME      = TEME
TIME_SYSTEM    = UTC
MEAN_ELEMENT_THEORY = SGP/SGP4

EPOCH          = 2025-12-19T06:00:02.000160
MEAN_MOTION    = 15.75063447
ECCENTRICITY   = .00016232
INCLINATION    = 43.0008
RA_OF_ASC_NODE = 82.4035
ARG_OF_PERICENTER = 259.0579
MEAN_ANOMALY   = 331.1554

EPHEMERIS_TYPE = 0
CLASSIFICATION_TYPE = U
NORAD_CAT_ID   = 66859
ELEMENT_SET_NO = 999
REV_AT_EPOCH   = 244
BSTAR          = -.2945646E-3
MEAN_MOTION_DOT = -.4553E-3
MEAN_MOTION_DDOT = 0

CCSDS_OMM_VERS = 2.0
CREATION_DATE  = 
ORIGINATOR     = 

OBJECT_NAME    = STARLINK-35987
OBJECT_ID      = 2025-281N
CENTER_NAME    = EARTH
REF_FRAME      = TEME
TIME_SYSTEM    = UTC
MEAN_ELEMENT_THEORY = SGP/SGP4

EPOCH          = 2025-12-19T06:00:02.000160
MEAN_MOTION    = 15.75080320
ECCENTRICITY   = .00015037
INCLINATION    = 43.0008
RA_OF_ASC_NODE = 82.3793
ARG_OF_PERICENTER = 267.5124
MEAN_ANOMALY   = 332.2681

EPHEMERIS_TYPE = 0
CLASSIFICATION_TYPE = U
NORAD_CAT_ID   = 66860
ELEMENT_SET_NO = 999
REV_AT_EPOCH   = 244
BSTAR          = -.35350335E-3
MEAN_MOTION_DOT = -.54526E-3
MEAN_MOTION_DDOT = 0

CCSDS_OMM_VERS = 2.0
CREATION_DATE  = 
ORIGINATOR     = 

OBJECT_NAME    = STARLINK-35991
OBJECT_ID      = 2025-281P
CENTER_NAME    = EARTH
REF_FRAME      = TEME
TIME_SYSTEM    = UTC
MEAN_ELEMENT_THEORY = SGP/SGP4

EPOCH          = 2025-12-19T06:00:02.000160
MEAN_MOTION    = 15.75048196
ECCENTRICITY   = .00016047
INCLINATION    = 43.0007
RA_OF_ASC_NODE = 82.3937
ARG_OF_PERICENTER = 266.7705
MEAN_ANOMALY   = 327.2783

EPHEMERIS_TYPE = 0
CLASSIFICATION_TYPE = U
NORAD_CAT_ID   = 66861
ELEMENT_SET_NO = 999
REV_AT_EPOCH   = 244
BSTAR          = -.77003106E-4
MEAN_MOTION_DOT = -.12293E-3
MEAN_MOTION_DDOT = 0

CCSDS_OMM_VERS = 2.0
CREATION_DATE  = 
ORIGINATOR     = 

OBJECT_NAME    = STARLINK-35974
OBJECT_ID      = 2025-281Q
CENTER_NAME    = EARTH
REF_FRAME      = TEME
TIME_SYSTEM    = UTC
MEAN_ELEMENT_THEORY = SGP/SGP4

EPOCH          = 2025-12-19T06:00:02.000160
MEAN_MOTION    = 15.75061313
ECCENTRICITY   = .00018266
INCLINATION    = 43.0006
RA_OF_ASC_NODE = 82.3987
ARG_OF_PERICENTER = 262.6507
MEAN_ANOMALY   = 329.4732

EPHEMERIS_TYPE = 0
CLASSIFICATION_TYPE = U
NORAD_CAT_ID   = 66862
ELEMENT_SET_NO = 999
REV_AT_EPOCH   = 234
BSTAR          = -.21318123E-3
MEAN_MOTION_DOT = -.33129E-3
MEAN_MOTION_DDOT = 0

CCSDS_OMM_VERS = 2.0
CREATION_DATE  = 
ORIGINATOR     = 

OBJECT_NAME    = STARLINK-36134
OBJECT_ID      = 2025-281R
CENTER_NAME    = EARTH
REF_FRAME      = TEME
TIME_SYSTEM    = UTC
MEAN_ELEMENT_THEORY = SGP/SGP4

EPOCH          = 2025-12-19T06:00:02.000160
MEAN_MOTION    = 15.75049728
ECCENTRICITY   = .00016112
INCLINATION    = 43.0005
RA_OF_ASC_NODE = 82.3894
ARG_OF_PERICENTER = 257.0942
MEAN_ANOMALY   = 338.8717

EPHEMERIS_TYPE = 0
CLASSIFICATION_TYPE = U
NORAD_CAT_ID   = 66863
ELEMENT_SET_NO = 999
REV_AT_EPOCH   = 244
BSTAR          = -.10406214E-3
MEAN_MOTION_DOT = -.16439E-3
MEAN_MOTION_DDOT = 0

